{
  "type": "FeatureCollection",
  "features": [
    {
      "type": "Feature",
      "properties": {
        "norad_id": 39766,
        "name": "ALOS-2",
        "group": "resource",
        "lat": -71.12551232232632,
        "lon": -118.26740099047699,
        "alt_km": 639.1739955585153,
        "timestamp": "2025-12-16T23:36:35.841942+00:00",
        "meta_object_name": "ALOS-2",
        "meta_object_id": "2014-029A",
        "meta_epoch": "2025-12-16T07:51:43.796736",
        "meta_mean_motion": 14.79470048,
        "meta_eccentricity": 0.00013602,
        "meta_inclination": 97.9224,
        "meta_ra_of_asc_node": 85.1224,
        "meta_arg_of_pericenter": 96.1156,
        "meta_mean_anomaly": 264.0211,
        "meta_ephemeris_type": 0,
        "meta_classification_type": "U",
        "meta_norad_cat_id": 39766,
        "meta_element_set_no": 999,
        "meta_rev_at_epoch": 62454,
        "meta_bstar": 0.00020606746,
        "meta_mean_motion_dot": 1.488e-05,
        "meta_mean_motion_ddot": 0,
        "tle_line1": "1 39766U 14029A   25350.32759024  .00001488  00000+0  20607-3 0  9992",
        "tle_line2": "2 39766  97.9224  85.1224 0001360  96.1156 264.0211 14.79470048624547"
      },
      "geometry": {
        "type": "Point",
        "coordinates": [
          -118.26740099047699,
          -71.12551232232632
        ]
      }
    },
    {
      "type": "Feature",
      "properties": {
        "norad_id": 40010,
        "name": "KAZEOSAT 2",
        "group": "resource",
        "lat": -68.62363244462443,
        "lon": -4.729781092865039,
        "alt_km": 617.3683328759707,
        "timestamp": "2025-12-16T23:36:35.841953+00:00",
        "meta_object_name": "KAZEOSAT 2",
        "meta_object_id": "2014-033A",
        "meta_epoch": "2025-12-16T07:56:08.097792",
        "meta_mean_motion": 14.85174251,
        "meta_eccentricity": 0.00079397,
        "meta_inclination": 97.5507,
        "meta_ra_of_asc_node": 194.4594,
        "meta_arg_of_pericenter": 194.099,
        "meta_mean_anomaly": 166.0006,
        "meta_ephemeris_type": 0,
        "meta_classification_type": "U",
        "meta_norad_cat_id": 40010,
        "meta_element_set_no": 999,
        "meta_rev_at_epoch": 62181,
        "meta_bstar": 9.9670969e-05,
        "meta_mean_motion_dot": 8.04e-06,
        "meta_mean_motion_ddot": 0,
        "tle_line1": "1 40010U 14033A   25350.33064928  .00000804  00000+0  99671-4 0  9993",
        "tle_line2": "2 40010  97.5507 194.4594 0007939 194.0990 166.0006 14.85174251621811"
      },
      "geometry": {
        "type": "Point",
        "coordinates": [
          -4.729781092865039,
          -68.62363244462443
        ]
      }
    },
    {
      "type": "Feature",
      "properties": {
        "norad_id": 40011,
        "name": "HODOYOSHI-4",
        "group": "resource",
        "lat": 12.710706416307474,
        "lon": 177.9455052306083,
        "alt_km": 623.2136765355845,
        "timestamp": "2025-12-16T23:36:35.841964+00:00",
        "meta_object_name": "HODOYOSHI-4",
        "meta_object_id": "2014-033B",
        "meta_epoch": "2025-12-16T09:01:19.715232",
        "meta_mean_motion": 14.87496908,
        "meta_eccentricity": 0.00233805,
        "meta_inclination": 97.5416,
        "meta_ra_of_asc_node": 179.0802,
        "meta_arg_of_pericenter": 188.1357,
        "meta_mean_anomaly": 171.9485,
        "meta_ephemeris_type": 0,
        "meta_classification_type": "U",
        "meta_norad_cat_id": 40011,
        "meta_element_set_no": 999,
        "meta_rev_at_epoch": 62162,
        "meta_bstar": 0.00015339416,
        "meta_mean_motion_dot": 1.345e-05,
        "meta_mean_motion_ddot": 0,
        "tle_line1": "1 40011U 14033B   25350.37592263  .00001345  00000+0  15339-3 0  9995",
        "tle_line2": "2 40011  97.5416 179.0802 0023380 188.1357 171.9485 14.87496908621624"
      },
      "geometry": {
        "type": "Point",
        "coordinates": [
          177.9455052306083,
          12.710706416307474
        ]
      }
    },
    {
      "type": "Feature",
      "properties": {
        "norad_id": 40013,
        "name": "DEIMOS-2",
        "group": "resource",
        "lat": -72.35220283824201,
        "lon": 21.80589901038335,
        "alt_km": 596.5203282301673,
        "timestamp": "2025-12-16T23:36:35.841975+00:00",
        "meta_object_name": "DEIMOS-2",
        "meta_object_id": "2014-033D",
        "meta_epoch": "2025-12-16T07:59:56.732928",
        "meta_mean_motion": 14.92986991,
        "meta_eccentricity": 9.899e-05,
        "meta_inclination": 97.6063,
        "meta_ra_of_asc_node": 226.0144,
        "meta_arg_of_pericenter": 108.187,
        "meta_mean_anomaly": 251.9458,
        "meta_ephemeris_type": 0,
        "meta_classification_type": "U",
        "meta_norad_cat_id": 40013,
        "meta_element_set_no": 999,
        "meta_rev_at_epoch": 61043,
        "meta_bstar": 0.00016074933,
        "meta_mean_motion_dot": 1.616e-05,
        "meta_mean_motion_ddot": 0,
        "tle_line1": "1 40013U 14033D   25350.33329552  .00001616  00000+0  16075-3 0  9991",
        "tle_line2": "2 40013  97.6063 226.0144 0000989 108.1870 251.9458 14.92986991610437"
      },
      "geometry": {
        "type": "Point",
        "coordinates": [
          21.80589901038335,
          -72.35220283824201
        ]
      }
    },
    {
      "type": "Feature",
      "properties": {
        "norad_id": 40015,
        "name": "HODOYOSHI-3",
        "group": "resource",
        "lat": -75.58870585479683,
        "lon": -54.762176426502215,
        "alt_km": 601.0597461844945,
        "timestamp": "2025-12-16T23:36:35.841986+00:00",
        "meta_object_name": "HODOYOSHI-3",
        "meta_object_id": "2014-033F",
        "meta_epoch": "2025-12-16T07:53:45.097152",
        "meta_mean_motion": 14.84820026,
        "meta_eccentricity": 0.00320101,
        "meta_inclination": 97.6196,
        "meta_ra_of_asc_node": 156.0079,
        "meta_arg_of_pericenter": 235.5971,
        "meta_mean_anomaly": 124.2217,
        "meta_ephemeris_type": 0,
        "meta_classification_type": "U",
        "meta_norad_cat_id": 40015,
        "meta_element_set_no": 999,
        "meta_rev_at_epoch": 62048,
        "meta_bstar": 0.00016941658,
        "meta_mean_motion_dot": 1.399e-05,
        "meta_mean_motion_ddot": 0,
        "tle_line1": "1 40015U 14033F   25350.32899418  .00001399  00000+0  16942-3 0  9996",
        "tle_line2": "2 40015  97.6196 156.0079 0032010 235.5971 124.2217 14.84820026620480"
      },
      "geometry": {
        "type": "Point",
        "coordinates": [
          -54.762176426502215,
          -75.58870585479683
        ]
      }
    },
    {
      "type": "Feature",
      "properties": {
        "norad_id": 40053,
        "name": "SPOT 7",
        "group": "resource",
        "lat": -26.727272795522133,
        "lon": 57.06908478691836,
        "alt_km": 696.9078444772495,
        "timestamp": "2025-12-16T23:36:35.841996+00:00",
        "meta_object_name": "SPOT 7",
        "meta_object_id": "2014-034A",
        "meta_epoch": "2025-12-16T08:56:15.150912",
        "meta_mean_motion": 14.60739396,
        "meta_eccentricity": 0.00015533,
        "meta_inclination": 98.0907,
        "meta_ra_of_asc_node": 52.3643,
        "meta_arg_of_pericenter": 86.1917,
        "meta_mean_anomaly": 273.9462,
        "meta_ephemeris_type": 0,
        "meta_classification_type": "U",
        "meta_norad_cat_id": 40053,
        "meta_element_set_no": 999,
        "meta_rev_at_epoch": 61044,
        "meta_bstar": 0.00011868673,
        "meta_mean_motion_dot": 5.33e-06,
        "meta_mean_motion_ddot": 0,
        "tle_line1": "1 40053U 14034A   25350.37239758  .00000533  00000+0  11869-3 0  9991",
        "tle_line2": "2 40053  98.0907  52.3643 0001553  86.1917 273.9462 14.60739396610442"
      },
      "geometry": {
        "type": "Point",
        "coordinates": [
          57.06908478691836,
          -26.727272795522133
        ]
      }
    },
    {
      "type": "Feature",
      "properties": {
        "norad_id": 40072,
        "name": "SKYSAT-B",
        "group": "resource",
        "lat": -45.441354131209465,
        "lon": -56.49653372230922,
        "alt_km": 617.4683967311375,
        "timestamp": "2025-12-16T23:36:35.842006+00:00",
        "meta_object_name": "SKYSAT-B",
        "meta_object_id": "2014-037D",
        "meta_epoch": "2025-12-16T07:40:15.647520",
        "meta_mean_motion": 14.8734094,
        "meta_eccentricity": 0.0006419,
        "meta_inclination": 98.3611,
        "meta_ra_of_asc_node": 294.2147,
        "meta_arg_of_pericenter": 139.7535,
        "meta_mean_anomaly": 220.4156,
        "meta_ephemeris_type": 0,
        "meta_classification_type": "U",
        "meta_norad_cat_id": 40072,
        "meta_element_set_no": 999,
        "meta_rev_at_epoch": 61877,
        "meta_bstar": 0.00017714779,
        "meta_mean_motion_dot": 1.539e-05,
        "meta_mean_motion_ddot": 0,
        "tle_line1": "1 40072U 14037D   25350.31962555  .00001539  00000+0  17715-3 0  9990",
        "tle_line2": "2 40072  98.3611 294.2147 0006419 139.7535 220.4156 14.87340940618774"
      },
      "geometry": {
        "type": "Point",
        "coordinates": [
          -56.49653372230922,
          -45.441354131209465
        ]
      }
    }
  ]
}